CRE (WAAS/PRN 138)      
1 28868U 05036A   19209.73452125 -.00000073  00000-0  00000-0 0  9997
2 28868   0.0179  62.7741 0001823  40.1356   0.2898  1.00271259 21244
CRW (WAAS/PRN 135)      
1 28884U 05041A   19210.42688337  .00000078  00000-0  00000+0 0  9998
2 28884   0.0595 269.5353 0001937 216.2932 201.6080  1.00272640 50407
IOR-W (EGNOS/PRN 126)   
1 28899U 05044A   19210.45853253  .00000009  00000-0  00000+0 0  9995
2 28899   2.8699  26.5700 0003177 116.9620  32.2503  1.00272390 50289
MTSAT-2 (MSAS/PRN 137)  
1 28937U 06004A   19209.88945706 -.00000243  00000-0  00000-0 0  9997
2 28937   0.0703 273.8851 0003838 215.5245 282.0362  1.00269377 49136
QZS-1 (QZSS/PRN 183)    
1 37158U 10045A   19209.71126076 -.00000155  00000-0  00000+0 0  9996
2 37158  41.3589 148.2147 0760101 270.8147 281.3068  1.00262905 32498
GSAT-8 (GAGAN/PRN 127)  
1 37605U 11022A   19210.45678782  .00000084  00000-0  00000+0 0  9998
2 37605   0.0308 102.7483 0003149 154.4531 269.0757  1.00271414 30020
LUCH 5A (SDCM/PRN 140)  
1 37951U 11074B   19210.25725400 -.00000046  00000-0  00000+0 0  9996
2 37951   2.5652 126.7108 0003594 352.3498  87.3388  1.00276419 27979
SES-5 (EGNOS/PRN 136)   
1 38652U 12036A   19210.80573137  .00000032  00000-0  00000+0 0  9997
2 38652   0.0563 104.6317 0001719  20.1717 117.3939  1.00272003 25856
GSAT-10 (GAGAN/PRN 128) 
1 38779U 12051B   19210.51924633 -.00000166  00000-0  00000+0 0  9992
2 38779   0.0673 258.1710 0002948 197.8384 120.8021  1.00272210 25072
LUCH 5B (SDCM/PRN 125)  
1 38977U 12061A   19210.87363339 -.00000125  00000-0  00000+0 0  9997
2 38977   5.0861  69.6704 0003411   3.0130 174.6249  1.00271951 24964
ASTRA 5B (EGNOS/PRN 123)
1 39617U 14011B   19209.87777582  .00000155  00000-0  00000-0 0  9996
2 39617   0.0323  61.5424 0003199  64.6485 167.5496  1.00268904 19449
LUCH 5V (SDCM/PRN 141)  
1 39727U 14023A   19210.24960772 -.00000268  00000-0  00000+0 0  9994
2 39727   1.1369 305.2711 0002727 194.0534 351.8210  1.00276424537307
GSAT-15 (GAGAN/PRN 139) 
1 41028U 15065A   19209.89057834 -.00000258  00000-0  00000-0 0  9993
2 41028   0.1331 276.1992 0001781 163.6839 280.4806  1.00272803 13627
E 117 W B (WAAS/PRN 131)
1 41589U 16038B   19210.41577222 -.00000012  00000-0  00000+0 0  9991
2 41589   0.0067 211.4717 0000393 248.1609 239.7982  1.00269820 11482
QZS-2 (QZSS/PRN 184)    
1 42738U 17028A   19209.39967691 -.00000146  00000-0  00000+0 0  9994
2 42738  43.5319 278.9557 0755291 269.4719  41.1914  1.00279793  7916
